MEAN_MOTION;ECCENTRICITY;INCLINATION;RA_OF_ASC_NODE;ARG_OF_PERICENTER;MEAN_ANOMALY;BSTAR;MEAN_MOTION_DOT;MEAN_MOTION_DDOT;TYPE
14.19550185;0.0001001;98.7129;14.4359;106.813;253.3156;2.0324E-5;-1.0E-8;0;Weather
14.1955023;0.0001015;98.7129;15.1987;106.9971;253.1316;1.8668E-5;-4.0E-8;0;Weather
14.1955023;0.0001015;98.7129;15.1987;106.9971;253.1316;1.8668E-5;-4.0E-8;0;Weather
14.19550258;0.0001024;98.713;15.5454;107.1551;252.9737;1.5818E-5;-1.0E-7;0;Weather
14.1955029;0.000103;98.7131;16.1695;107.2407;252.8882;1.3292E-5;-1.6E-7;0;Weather
14.19550321;0.0001035;98.7131;16.5162;107.5084;252.6205;1.1363E-5;-2.0E-7;0;Weather
14.19550367;0.0001047;98.7132;17.1404;107.4887;252.6404;1.0807E-5;-2.1E-7;0;Weather
14.19550386;0.0001051;98.7132;17.4177;107.5177;252.6114;8.8693E-6;-2.5E-7;0;Weather
14.19550454;0.0001071;98.7133;18.0418;107.5534;252.5759;1.2376E-5;-1.8E-7;0;Weather
14.19550448;0.0001077;98.7133;18.1805;107.3021;252.8273;1.2046E-5;-1.8E-7;0;Weather
14.19550469;0.0001078;98.7134;18.3192;107.2654;252.8641;1.2686E-5;-1.7E-7;0;Weather
14.19550533;0.000111;98.7134;19.082;106.9469;253.1829;1.883E-5;-4.0E-8;0;Weather
14.19550533;0.000111;98.7134;19.082;106.9469;253.1829;1.883E-5;-4.0E-8;0;Weather
14.19550562;0.000112;98.7135;19.4981;106.9129;253.217;1.9545E-5;-2.0E-8;0;Weather
14.19550573;0.0001125;98.7136;20.0529;106.8067;253.3233;1.9765E-5;-2.0E-8;0;Weather
14.19550603;0.0001129;98.7136;20.3996;106.8121;253.3179;1.9758E-5;-2.0E-8;0;Weather
14.1955061;0.0001139;98.7137;21.0931;106.5825;253.5476;1.7121E-5;-8.0E-8;0;Weather
14.19550631;0.0001139;98.7137;21.3705;106.7217;253.4084;1.5495E-5;-1.1E-7;0;Weather
14.19550716;0.0001155;98.7138;22.4107;106.6037;253.5266;1.5678E-5;-1.1E-7;0;Weather
14.19550784;0.0001173;98.7139;23.0349;106.2068;253.9237;1.9337E-5;-3.0E-8;0;Weather
14.19550821;0.0001177;98.7139;23.3123;106.1356;253.9949;2.0298E-5;-1.0E-8;0;Weather
14.19550901;0.0001204;98.714;24.0058;105.6666;254.4643;2.6088E-5;1.1E-7;0;Weather
14.19550936;0.0001211;98.714;24.3525;105.5877;254.5433;2.6305E-5;1.2E-7;0;Weather
14.19550978;0.0001227;98.714;24.9767;105.2395;254.8917;2.7772E-5;1.5E-7;0;Weather
14.19551008;0.0001233;98.714;25.3235;105.2019;254.9293;2.6531E-5;1.2E-7;0;Weather
14.19551041;0.000124;98.7141;25.9477;104.8507;255.2806;2.4182E-5;7.0E-8;0;Weather
14.19551043;0.0001241;98.7141;26.017;104.8528;255.2786;2.4008E-5;7.0E-8;0;Weather
14.19551075;0.0001242;98.7141;26.2944;104.8658;255.2656;2.1839E-5;2.0E-8;0;Weather
14.19551106;0.0001252;98.7141;26.988;104.5483;255.5832;1.7157E-5;-7.0E-8;0;Weather
14.19551133;0.0001254;98.7141;27.2654;104.5689;255.5626;1.4862E-5;-1.2E-7;0;Weather
14.19551215;0.0001265;98.7142;27.9589;104.1981;255.9336;1.6357E-5;-9.0E-8;0;Weather
14.19551239;0.000127;98.7142;28.2363;104.013;256.1188;1.4604E-5;-1.3E-7;0;Weather
14.19551317;0.0001288;98.7143;28.9299;103.4933;256.6387;1.8276E-5;-5.0E-8;0;Weather
14.1955134;0.00013;98.7144;29.2766;103.2503;256.8818;1.7358E-5;-7.0E-8;0;Weather
14.19551372;0.0001314;98.7145;29.9009;102.7563;257.376;1.9206E-5;-3.0E-8;0;Weather
14.19551391;0.0001319;98.7145;30.2476;102.6678;257.4646;1.7826E-5;-6.0E-8;0;Weather
14.19551414;0.000133;98.7146;30.8719;102.3222;257.8103;1.6675E-5;-8.0E-8;0;Weather
14.19551448;0.0001333;98.7147;31.288;102.1702;257.9624;1.4955E-5;-1.2E-7;0;Weather
14.19551475;0.000134;98.7148;31.8429;101.8947;258.2379;1.3728E-5;-1.5E-7;0;Weather
14.19551475;0.000134;98.7148;31.8429;101.8947;258.2379;1.3728E-5;-1.5E-7;0;Weather
14.19551485;0.0001344;98.7148;32.1897;101.8249;258.3078;1.0382E-5;-2.2E-7;0;Weather
14.19551525;0.0001354;98.715;32.8833;101.375;258.7579;9.9759E-6;-2.3E-7;0;Weather
14.19551546;0.0001357;98.715;33.1607;101.2839;258.849;9.0347E-6;-2.5E-7;0;Weather
14.19551605;0.0001373;98.7151;33.8544;100.8666;259.2665;1.2843E-5;-1.7E-7;0;Weather
14.19551622;0.0001377;98.7152;34.1318;100.6594;259.4737;1.2909E-5;-1.6E-7;0;Weather
14.19551684;0.0001396;98.7153;34.8254;100.1614;259.972;1.856E-5;-4.0E-8;0;Weather
14.19551681;0.0001397;98.7153;34.8948;100.1195;260.0139;1.843E-5;-5.0E-8;0;Weather
14.19551714;0.0001399;98.7153;35.1029;100.0207;260.1127;2.016E-5;-1.0E-8;0;Weather
14.19551771;0.0001411;98.7154;35.7965;99.5357;260.5978;2.4225E-5;7.0E-8;0;Weather
14.1955177;0.0001414;98.7154;35.8659;99.4143;260.7193;2.3815E-5;7.0E-8;0;Weather
14.19551803;0.0001418;98.7154;36.2127;99.3067;260.8269;2.3093E-5;5.0E-8;0;Weather
14.19551801;0.0001419;98.7154;36.2821;99.2822;260.8514;2.2853E-5;5.0E-8;0;Weather
14.19551872;0.0001423;98.7154;37.1838;98.7112;261.4225;2.0486E-5;0;0;Weather
14.19551904;0.0001429;98.7155;37.4612;98.6072;261.5266;2.0634E-5;0;0;Weather
14.19551921;0.0001424;98.7155;37.7387;98.3194;261.8143;2.0244E-5;-1.0E-8;0;Weather
14.19551946;0.0001428;98.7155;38.0855;98.1298;262.004;1.8237E-5;-5.0E-8;0;Weather
14.19552031;0.0001432;98.7156;38.7098;97.567;262.5669;2.1799E-5;2.0E-8;0;Weather
14.1955206;0.0001438;98.7156;39.0566;97.3033;262.8306;2.0922E-5;0;0;Weather
14.1955216;0.0001451;98.7156;39.7503;96.6208;263.5134;2.7887E-5;1.5E-7;0;Weather
14.1955216;0.0001451;98.7156;39.7503;96.6208;263.5134;2.7887E-5;1.5E-7;0;Weather
14.19552189;0.0001453;98.7156;40.0277;96.484;263.6501;2.7495E-5;1.4E-7;0;Weather
14.19552252;0.0001466;98.7157;40.7214;96.1146;264.0197;2.9513E-5;1.9E-7;0;Weather
14.19552292;0.0001466;98.7157;40.9989;95.9308;264.2035;2.9285E-5;1.8E-7;0;Weather
14.1955235;0.0001473;98.7157;41.8313;95.3741;264.7603;2.5809E-5;1.1E-7;0;Weather
14.19552381;0.0001472;98.7158;42.0394;95.326;264.8084;2.4338E-5;8.0E-8;0;Weather
14.1955244;0.0001478;98.7159;42.8718;94.9178;265.2167;1.8842E-5;-4.0E-8;0;Weather
14.19552459;0.0001479;98.7159;43.0105;94.8279;265.3067;1.7821E-5;-6.0E-8;0;Weather
14.19552513;0.0001491;98.716;43.9123;94.116;266.0187;1.2648E-5;-1.7E-7;0;Weather
14.19552529;0.0001493;98.716;44.0511;94.0319;266.1028;1.2597E-5;-1.7E-7;0;Weather
14.19552603;0.0001503;98.7161;44.6754;93.5386;266.5962;1.5959E-5;-1.0E-7;0;Weather
14.19552625;0.0001508;98.7161;44.9529;93.245;266.8899;1.5586E-5;-1.1E-7;0;Weather
14.19552666;0.0001514;98.7162;45.6466;92.6954;267.4396;1.7625E-5;-6.0E-8;0;Weather
14.19552682;0.0001522;98.7162;45.9241;92.4332;267.7018;1.6561E-5;-9.0E-8;0;Weather
14.1955279;0.0001528;98.7164;47.0341;91.5702;268.5649;1.7645E-5;-6.0E-8;0;Weather
14.19552789;0.0001525;98.7164;47.6585;90.9521;269.183;1.3508E-5;-1.5E-7;0;Weather
14.19552817;0.0001522;98.7165;47.9359;90.8656;269.2695;1.2496E-5;-1.7E-7;0;Weather
14.1955285;0.0001522;98.7166;48.5603;90.3619;269.7731;1.1914E-5;-1.9E-7;0;Weather
14.19552855;0.0001524;98.7166;48.9766;89.9862;270.1489;8.683E-6;-2.5E-7;0;Weather
14.19552905;0.0001532;98.7167;49.6703;89.3659;270.7693;1.2677E-5;-1.7E-7;0;Weather
14.19552934;0.0001531;98.7167;49.9478;89.1685;270.9666;1.3689E-5;-1.5E-7;0;Weather
14.19553009;0.0001545;98.7168;50.7109;88.5793;271.556;2.1395E-5;1.0E-8;0;Weather
14.19553034;0.0001545;98.7168;50.919;88.4273;271.708;2.239E-5;4.0E-8;0;Weather
14.19553091;0.0001548;98.7169;51.7516;87.8645;272.2708;2.395E-5;7.0E-8;0;Weather
14.19553108;0.0001546;98.7169;51.8209;87.8462;272.2891;2.4619E-5;8.0E-8;0;Weather
14.19553139;0.0001544;98.7169;52.5841;87.1026;273.0327;2.1764E-5;2.0E-8;0;Weather
14.19553139;0.0001544;98.7169;52.5841;87.1026;273.0327;2.1764E-5;2.0E-8;0;Weather
14.19553185;0.000154;98.7169;52.8616;86.8108;273.3244;2.1844E-5;2.0E-8;0;Weather
14.19553233;0.0001538;98.717;53.6248;86.2239;273.9113;1.9293E-5;-3.0E-8;0;Weather
14.19553249;0.0001538;98.7169;53.7635;86.0782;274.057;1.816E-5;-5.0E-8;0;Weather
14.19553325;0.0001539;98.717;54.4574;85.5017;274.6335;1.9402E-5;-3.0E-8;0;Weather
14.19553359;0.0001536;98.717;54.8043;85.1547;274.9804;1.8649E-5;-4.0E-8;0;Weather
14.19553436;0.0001549;98.717;55.4981;84.7064;275.4289;2.2745E-5;4.0E-8;0;Weather
14.19553462;0.0001547;98.7171;55.7062;84.606;275.5293;2.358E-5;6.0E-8;0;Weather
14.19553482;0.0001548;98.7171;55.845;84.485;275.6502;2.3745E-5;6.0E-8;0;Weather
14.19553512;0.000155;98.7171;56.5388;83.9778;276.1575;2.3518E-5;6.0E-8;0;Weather
14.19553536;0.0001548;98.7171;56.8163;83.7886;276.3466;2.169E-5;2.0E-8;0;Weather
14.19553574;0.0001549;98.7172;57.5101;83.4408;276.6944;1.9689E-5;-2.0E-8;0;Weather
14.19553611;0.0001543;98.7173;57.857;83.1053;277.0298;1.6831E-5;-8.0E-8;0;Weather
14.19553661;0.0001537;98.7174;58.759;82.5632;277.5719;1.1268E-5;-2.0E-7;0;Weather
14.19553659;0.0001539;98.7174;58.8284;82.5201;277.6149;1.0554E-5;-2.1E-7;0;Weather
14.195537;0.0001537;98.7175;59.4528;81.9103;278.2247;1.0005E-5;-2.3E-7;0;Weather
14.19553716;0.0001536;98.7175;59.7303;81.7391;278.3959;7.8185E-6;-2.7E-7;0;Weather
14.19553787;0.0001541;98.7177;60.4242;81.1703;278.9647;1.2566E-5;-1.7E-7;0;Weather
14.195538;0.0001542;98.7177;60.8405;80.9844;279.1507;1.2281E-5;-1.8E-7;0;Weather
14.19553849;0.0001542;98.7178;61.3262;80.6039;279.5311;1.6453E-5;-9.0E-8;0;Weather
14.19553878;0.0001539;98.7178;61.6731;80.2304;279.9046;1.7409E-5;-7.0E-8;0;Weather
14.19553917;0.0001536;98.7179;62.367;79.7194;280.4155;1.8829E-5;-4.0E-8;0;Weather
14.19553917;0.0001536;98.7179;62.367;79.7194;280.4155;1.8829E-5;-4.0E-8;0;Weather
14.19553917;0.0001535;98.7179;62.4364;79.6646;280.4703;1.8648E-5;-4.0E-8;0;Weather
14.19553946;0.0001528;98.718;62.7139;79.4251;280.7097;1.7553E-5;-7.0E-8;0;Weather
14.1955395;0.000153;98.718;62.8527;79.3858;280.7491;1.7306E-5;-7.0E-8;0;Weather
14.19553953;0.0001522;98.718;63.4078;78.82;281.3147;1.3726E-5;-1.5E-7;0;Weather
14.19553953;0.0001522;98.718;63.4078;78.82;281.3147;1.3726E-5;-1.5E-7;0;Weather
14.19553982;0.0001515;98.7181;63.7547;78.7032;281.4314;1.252E-5;-1.7E-7;0;Weather
14.19553985;0.0001516;98.7181;63.8935;78.6709;281.4637;1.2455E-5;-1.7E-7;0;Weather
14.19554043;0.0001507;98.7181;64.518;78.0758;282.0587;1.3461E-5;-1.5E-7;0;Weather
14.19554043;0.0001508;98.7181;64.7262;78.0011;282.1335;1.0566E-5;-2.1E-7;0;Weather
14.19554121;0.000151;98.7182;65.3507;77.6039;282.5306;1.7143E-5;-8.0E-8;0;Weather
14.19554165;0.0001506;98.7182;65.6976;77.3886;282.7459;1.9152E-5;-3.0E-8;0;Weather
14.1955422;0.0001505;98.7182;66.2527;76.9753;283.1591;2.4029E-5;7.0E-8;0;Weather
